{
    "links": {
        "self": "http://www.neowsapp.com/rest/v1/neo/3730325?api_key=iIulBulltgU6a56xZRHN4H3l9WmuAYTsLGpBGhQ2"
    },
    "id": "3730325",
    "neo_reference_id": "3730325",
    "name": "(2015 TS178)",
    "designation": "2015 TS178",
    "nasa_jpl_url": "http://ssd.jpl.nasa.gov/sbdb.cgi?sstr=3730325",
    "absolute_magnitude_h": 22.4,
    "estimated_diameter": {
        "kilometers": {
            "estimated_diameter_min": 0.0880146521,
            "estimated_diameter_max": 0.1968067451
        },
        "meters": {
            "estimated_diameter_min": 88.0146520901,
            "estimated_diameter_max": 196.8067450894
        },
        "miles": {
            "estimated_diameter_min": 0.0546897524,
            "estimated_diameter_max": 0.122290004
        },
        "feet": {
            "estimated_diameter_min": 288.7619911632,
            "estimated_diameter_max": 645.6914415591
        }
    },
    "is_potentially_hazardous_asteroid": false,
    "close_approach_data": [
        {
            "close_approach_date": "2015-10-11",
            "close_approach_date_full": "2015-Oct-11 16:08",
            "epoch_date_close_approach": 1444579680000,
            "relative_velocity": {
                "kilometers_per_second": "21.0583857792",
                "kilometers_per_hour": "75810.1888050516",
                "miles_per_hour": "47105.50314945"
            },
            "miss_distance": {
                "astronomical": "0.2078205897",
                "lunar": "80.8422093933",
                "kilometers": "31089517.561263939",
                "miles": "19318130.4189587982"
            },
            "orbiting_body": "Earth"
        }
    ],
    "orbital_data": {
        "orbit_id": "6",
        "orbit_determination_date": "2017-04-06 08:31:22",
        "first_observation_date": "2015-10-10",
        "last_observation_date": "2015-10-17",
        "data_arc_in_days": 7,
        "observations_used": 25,
        "orbit_uncertainty": "9",
        "minimum_orbit_intersection": ".202021",
        "jupiter_tisserand_invariant": "4.224",
        "epoch_osculation": "2457307.5",
        "eccentricity": ".3030899965397595",
        "semi_major_axis": "1.519646732417867",
        "inclination": "39.06874474623252",
        "ascending_node_longitude": "194.111734982217",
        "orbital_period": "684.2461898086543",
        "perihelion_distance": "1.059057009547679",
        "perihelion_argument": "243.5386006705794",
        "aphelion_distance": "1.980236455288056",
        "perihelion_time": "2457365.362169669403",
        "mean_anomaly": "329.5571836697985",
        "mean_motion": ".5261264225682748",
        "equinox": "J2000",
        "orbit_class": {
            "orbit_class_type": "AMO",
            "orbit_class_description": "Near-Earth asteroid orbits similar to that of 1221 Amor",
            "orbit_class_range": "1.017 AU < q (perihelion) < 1.3 AU"
        }
    },
    "is_sentry_object": false
}